OBJECT_NAME,OBJECT_ID,EPOCH,MEAN_MOTION,ECCENTRICITY,INCLINATION,RA_OF_ASC_NODE,ARG_OF_PERICENTER,MEAN_ANOMALY,EPHEMERIS_TYPE,CLASSIFICATION_TYPE,NORAD_CAT_ID,ELEMENT_SET_NO,REV_AT_EPOCH,BSTAR,MEAN_MOTION_DOT,MEAN_MOTION_DDOT
STARLINK-35947,2025-283F,2026-06-19T13:06:46.210752,15.34402743,.00011845,53.1593,270.0137,88.6596,271.4543,0,U,66883,999,3147,.38443052E-3,.12635E-3,0
STARLINK-36057,2025-283G,2026-06-19T13:52:12.911808,15.34392124,.00012754,53.1598,270.2093,101.1806,258.9340,0,U,66884,999,3145,.56539549E-3,.1877E-3,0
STARLINK-35954,2025-283H,2026-06-19T18:15:25.854624,15.34388585,.0001115,53.1576,269.2163,82.1863,277.9266,0,U,66885,999,3148,.41466E-3,.13654E-3,0
STARLINK-35900,2025-283J,2026-06-19T13:21:54.906336,15.34408370,.00012997,53.1593,270.0757,89.8221,270.2931,0,U,66886,999,3145,.75190542E-3,.2512E-3,0
STARLINK-35925,2025-283K,2026-06-19T13:49:12.812736,15.34362760,.00012959,53.1571,270.1930,104.2521,255.8626,0,U,66887,999,3145,.75681435E-3,.2525E-3,0
STARLINK-35919,2025-283L,2026-06-18T14:40:25.974336,15.34412185,.00016645,53.1605,274.8369,42.8356,317.2776,0,U,66888,999,3130,.76707581E-3,.25639E-3,0
STARLINK-35852,2025-283M,2026-06-19T13:18:53.436960,15.34411196,.00011453,53.1592,270.0609,84.7958,275.3175,0,U,66889,999,3145,.837498E-3,.28036E-3,0
STARLINK-35885,2025-283N,2026-06-19T16:44:39.084576,15.34417971,.0001147,53.1583,269.5298,77.3750,282.7381,0,U,66890,999,3147,.97137E-3,.32604E-3,0
STARLINK-35855,2025-283P,2026-06-19T00:00:10.171008,15.34376356,.00011862,53.1594,272.9956,104.3430,255.7705,0,U,66891,999,3136,.60107814E-3,.19971E-3,0
STARLINK-35883,2025-283Q,2026-06-19T13:40:48.711072,15.30203368,.00010994,53.1583,270.8633,82.8796,277.2330,0,U,66892,999,3144,.32208084E-3,.9193E-4,0
STARLINK-36033,2025-283R,2026-06-19T13:07:32.844288,15.30212848,.00013843,53.1609,271.4316,45.3709,314.7405,0,U,66893,999,3143,.72318159E-3,.21129E-3,0
STARLINK-35718,2025-283S,2026-06-19T13:31:41.750688,15.30207539,.00013229,53.1590,270.8220,81.5830,278.5321,0,U,66894,999,3144,.4007948E-3,.11532E-3,0
STARLINK-35971,2025-283T,2026-06-19T13:15:51.530400,15.34415829,.00009492,53.1589,270.0484,93.1796,266.9315,0,U,66895,999,3145,.84179287E-3,.28186E-3,0
STARLINK-35791,2025-283U,2026-06-19T13:16:29.519616,15.30190064,.00012051,53.1596,270.7553,100.5734,259.5403,0,U,66896,999,3144,.67306254E-3,.19622E-3,0
STARLINK-36079,2025-283V,2026-06-19T17:08:53.878272,15.34400959,.0001438,53.1544,269.6377,69.3455,290.7702,0,U,66897,999,3146,.65624E-3,.21861E-3,0
STARLINK-36065,2025-283W,2026-06-19T12:51:37.001952,15.34406639,.00019822,53.1595,269.9396,107.1294,252.9925,0,U,66898,999,3145,.54765454E-3,.18176E-3,0
STARLINK-36064,2025-283X,2026-06-19T13:00:41.918112,15.34422300,.00019838,53.1612,269.9847,78.8775,281.2451,0,U,66899,999,3145,.78669052E-3,.26316E-3,0
STARLINK-36074,2025-283Y,2026-06-19T13:31:00.217344,15.34403792,.00009389,53.1587,270.1120,92.9053,267.2057,0,U,66900,999,3145,.59897133E-3,.19917E-3,0
STARLINK-36043,2025-283Z,2026-06-19T12:57:40.523904,15.34408734,.00011533,53.1600,269.9683,72.8168,287.2961,0,U,66901,999,3145,.8223306E-3,.27517E-3,0
STARLINK-35983,2025-283AA,2026-06-19T13:27:58.098240,15.34387790,.00014426,53.1598,270.0961,82.1208,277.9958,0,U,66902,999,3145,.71677351E-3,.23909E-3,0
STARLINK-36077,2025-283AB,2026-06-19T13:46:09.271488,15.34407403,.00010819,53.1595,270.1718,63.5870,296.5244,0,U,66903,999,3145,.80855914E-3,.27047E-3,0
STARLINK-36059,2025-283AC,2026-06-18T13:21:47.005056,15.34406100,.0001574,53.1618,275.2067,54.8984,305.2166,0,U,66904,999,3129,.51397E-3,.17032E-3,0
STARLINK-36075,2025-283AD,2026-06-19T13:06:01.594656,15.30205339,.00013705,53.1594,271.4188,91.9681,268.1477,0,U,66905,999,3143,.59935261E-3,.17437E-3,0
DUPLEX,1998-067XS,2026-06-19T11:34:44.488704,15.62737928,.00030923,51.6282,277.8816,219.1818,140.8953,0,U,66906,999,3101,.37076257E-3,.33583E-3,0
ISS OBJECT XY,1998-067XY,2026-06-19T11:23:21.062112,16.01029285,.00117585,51.6155,261.8803,333.2317,26.8085,0,U,66912,999,3121,.10597639E-2,.593208E-2,.16925627E-3
2025-284A,2025-284A,2026-06-19T16:30:13.487904,13.97342499,.0010894,80.4064,286.7336,227.3304,132.6940,0,U,66913,999,2783,.69169E-4,.106E-5,0
2025-284B,2025-284B,2026-06-19T16:41:11.327136,13.97323072,.001111,80.3986,286.5945,225.0762,134.9498,0,U,66914,999,2783,.77853E-4,.119E-5,0
HULIANWANG DIGUI-105,2025-285A,2026-06-19T13:57:47.723040,13.29321177,.00011551,50.0035,137.6312,298.9982,61.0775,0,U,66915,999,2637,.19678452E-4,-.115E-5,0
HULIANWANG DIGUI-106,2025-285B,2026-06-19T06:32:40.583616,13.29321773,.00011752,50.0046,138.6844,298.5532,61.5222,0,U,66916,999,2633,.62124548E-4,-.95E-6,0
HULIANWANG DIGUI-107,2025-285C,2026-06-19T06:20:32.321472,13.29324542,.00011221,50.0009,138.5856,301.0752,59.0010,0,U,66917,999,2633,.16548014E-4,-.116E-5,0
