STARLINK-35947          
1 66883U 25283F   26170.54636818  .00012635  00000+0  38443-3 0  9999
2 66883  53.1593 270.0137 0001184  88.6596 271.4543 15.34402743 31479
STARLINK-36057          
1 66884U 25283G   26170.57792722  .00018770  00000+0  56540-3 0  9994
2 66884  53.1598 270.2093 0001275 101.1806 258.9340 15.34392124 31458
STARLINK-35954          
1 66885U 25283H   26170.76071591  .00013654  00000+0  41466-3 0  9997
2 66885  53.1576 269.2163 0001115  82.1863 277.9266 15.34388585 31482
STARLINK-35900          
1 66886U 25283J   26170.55688549  .00025120  00000+0  75191-3 0  9995
2 66886  53.1593 270.0757 0001299  89.8221 270.2931 15.34408370 31453
STARLINK-35925          
1 66887U 25283K   26170.57584274  .00025250  00000+0  75681-3 0  9996
2 66887  53.1571 270.1930 0001295 104.2521 255.8626 15.34362760 31457
STARLINK-35919          
1 66888U 25283L   26169.61141174  .00025639  00000+0  76708-3 0  9990
2 66888  53.1605 274.8369 0001664  42.8356 317.2776 15.34412185 31306
STARLINK-35852          
1 66889U 25283M   26170.55478515  .00028036  00000+0  83750-3 0  9997
2 66889  53.1592 270.0609 0001145  84.7958 275.3175 15.34411196 31458
STARLINK-35885          
1 66890U 25283N   26170.69767459  .00032604  00000+0  97137-3 0  9992
2 66890  53.1583 269.5298 0001147  77.3750 282.7381 15.34417971 31477
STARLINK-35855          
1 66891U 25283P   26170.00011772  .00019971  00000+0  60108-3 0  9998
2 66891  53.1594 272.9956 0001186 104.3430 255.7705 15.34376356 31367
STARLINK-35883          
1 66892U 25283Q   26170.57000823  .00009193  00000+0  32208-3 0  9991
2 66892  53.1583 270.8633 0001099  82.8796 277.2330 15.30203368 31443
STARLINK-36033          
1 66893U 25283R   26170.54690792  .00021129  00000+0  72318-3 0  9998
2 66893  53.1609 271.4316 0001384  45.3709 314.7405 15.30212848 31435
STARLINK-35718          
1 66894U 25283S   26170.56367767  .00011532  00000+0  40079-3 0  9990
2 66894  53.1590 270.8220 0001322  81.5830 278.5321 15.30207539 31447
STARLINK-35971          
1 66895U 25283T   26170.55267975  .00028186  00000+0  84179-3 0  9992
2 66895  53.1589 270.0484 0000949  93.1796 266.9315 15.34415829 31456
STARLINK-35791          
1 66896U 25283U   26170.55311944  .00019622  00000+0  67306-3 0  9997
2 66896  53.1596 270.7553 0001205 100.5734 259.5403 15.30190064 31442
STARLINK-36079          
1 66897U 25283V   26170.71451248  .00021861  00000+0  65624-3 0  9997
2 66897  53.1544 269.6377 0001438  69.3455 290.7702 15.34400959 31469
STARLINK-36065          
1 66898U 25283W   26170.53584493  .00018176  00000+0  54765-3 0  9996
2 66898  53.1595 269.9396 0001982 107.1294 252.9925 15.34406639 31453
STARLINK-36064          
1 66899U 25283X   26170.54215183  .00026316  00000+0  78669-3 0  9999
2 66899  53.1612 269.9847 0001983  78.8775 281.2451 15.34422300 31456
STARLINK-36074          
1 66900U 25283Y   26170.56319696  .00019917  00000+0  59897-3 0  9999
2 66900  53.1587 270.1120 0000938  92.9053 267.2057 15.34403792 31453
STARLINK-36043          
1 66901U 25283Z   26170.54005236  .00027517  00000+0  82233-3 0  9995
2 66901  53.1600 269.9683 0001153  72.8168 287.2961 15.34408734 31451
STARLINK-35983          
1 66902U 25283AA  26170.56108910  .00023909  00000+0  71677-3 0  9992
2 66902  53.1598 270.0961 0001442  82.1208 277.9958 15.34387790 31450
STARLINK-36077          
1 66903U 25283AB  26170.57371842  .00027047  00000+0  80856-3 0  9996
2 66903  53.1595 270.1718 0001081  63.5870 296.5244 15.34407403 31455
STARLINK-36059          
1 66904U 25283AC  26169.55679404  .00017032  00000+0  51397-3 0  9999
2 66904  53.1618 275.2067 0001574  54.8984 305.2166 15.34406100 31297
STARLINK-36075          
1 66905U 25283AD  26170.54585179  .00017437  00000+0  59935-3 0  9991
2 66905  53.1594 271.4188 0001370  91.9681 268.1477 15.30205339 31438
DUPLEX                  
1 66906U 98067XS  26170.48245936  .00033583  00000+0  37076-3 0  9991
2 66906  51.6282 277.8816 0003092 219.1818 140.8953 15.62737928 31011
ISS OBJECT XY           
1 66912U 98067XY  26170.47454933  .00593208  16926-3  10598-2 0  9998
2 66912  51.6155 261.8803 0011758 333.2317  26.8085 16.01029285 31211
2025-284A               
1 66913U 25284A   26170.68765611  .00000106  00000+0  69169-4 0  9993
2 66913  80.4064 286.7336 0010894 227.3304 132.6940 13.97342499 27833
2025-284B               
1 66914U 25284B   26170.69526999  .00000119  00000+0  77853-4 0  9992
2 66914  80.3986 286.5945 0011110 225.0762 134.9498 13.97323072 27834
HULIANWANG DIGUI-105    
1 66915U 25285A   26170.58180235 -.00000115  00000+0  19678-4 0  9999
2 66915  50.0035 137.6312 0001155 298.9982  61.0775 13.29321177 26374
HULIANWANG DIGUI-106    
1 66916U 25285B   26170.27269194 -.00000095  00000+0  62125-4 0  9990
2 66916  50.0046 138.6844 0001175 298.5532  61.5222 13.29321773 26337
HULIANWANG DIGUI-107    
1 66917U 25285C   26170.26426298 -.00000116  00000+0  16548-4 0  9992
2 66917  50.0009 138.5856 0001122 301.0752  59.0010 13.29324542 26339
